ORBCOMM FM05            
1 25117U 97084F   25317.15362414  .00005193  00000+0  14661-2 0  9995
2 25117  45.0155  12.5324 0004480 249.5401 110.4970 14.46546430462175
ORBCOMM FM06            
1 25118U 97084G   25317.13670416  .00005192  00000+0  14613-2 0  9994
2 25118  45.0147  12.1761 0003429 249.8433 141.3845 14.46698444463097
ORBCOMM FM07            
1 25119U 97084H   25317.14332741  .00004588  00000+0  12954-2 0  9996
2 25119  45.0139  12.8981 0005324 247.0469 112.9822 14.46715335463082
ORBCOMM FM03            
1 25158U 98007B   25317.12922897  .00003227  00000+0  11658-2 0  9999
2 25158 107.9627  81.6276 0044673 345.1449  14.8377 14.34904835445407
ORBCOMM FM04            
1 25159U 98007C   25317.15769961  .00003347  00000+0  12039-2 0  9991
2 25159 107.9619  85.0074 0040613 342.0516  17.9189 14.35152346445592
ORBCOMM FM17            
1 25413U 98046A   25316.94097936  .00002961  00000+0  10693-2 0  9994
2 25413  44.9936 275.4021 0004046 268.2117  91.8266 14.35446408424544
ORBCOMM FM18            
1 25414U 98046B   25317.01547148  .00003129  00000+0  10491-2 0  9992
2 25414  44.9910 188.4136 0004930 323.1109  36.9400 14.39028124425682
ORBCOMM FM19            
1 25415U 98046C   25317.00734726  .00003472  00000+0  11632-2 0  9991
2 25415  44.9918 190.6806 0003707 320.8816 171.8642 14.38846292425635
